{
  "type": "FeatureCollection",
  "features": [
    {
      "type": "Feature",
      "properties": {
        "norad_id": 66549,
        "name": "SHIJIAN-28",
        "group": "last-30-days",
        "lat": -2.000002630020529,
        "lon": -95.95776628097275,
        "alt_km": 33941.190764814,
        "timestamp": "2025-12-10T05:46:12.575464+00:00",
        "meta_object_name": "SHIJIAN-28",
        "meta_object_id": "2025-277A",
        "meta_epoch": "2025-12-01T04:36:42.476256",
        "meta_mean_motion": 2.08595383,
        "meta_eccentricity": 0.6308324,
        "meta_inclination": 11.5392,
        "meta_ra_of_asc_node": 275.706,
        "meta_arg_of_pericenter": 179.9335,
        "meta_mean_anomaly": 180.3971,
        "meta_ephemeris_type": 0,
        "meta_classification_type": "U",
        "meta_norad_cat_id": 66549,
        "meta_element_set_no": 999,
        "meta_rev_at_epoch": 5,
        "meta_bstar": 0,
        "meta_mean_motion_dot": -3.3e-07,
        "meta_mean_motion_ddot": 0,
        "tle_line1": "1 66549U 25277A   25335.19215829 -.00000033  00000+0  00000+0 0  9993",
        "tle_line2": "2 66549  11.5392 275.7060 6308324 179.9335 180.3971  2.08595383    50"
      },
      "geometry": {
        "type": "Point",
        "coordinates": [
          -95.95776628097275,
          -2.000002630020529
        ]
      }
    },
    {
      "type": "Feature",
      "properties": {
        "norad_id": 66550,
        "name": "CZ-7A R/B",
        "group": "last-30-days",
        "lat": -13.114908387332695,
        "lon": -153.7768862850791,
        "alt_km": 7786.779995034213,
        "timestamp": "2025-12-10T05:46:12.575483+00:00",
        "meta_object_name": "CZ-7A R/B",
        "meta_object_id": "2025-277B",
        "meta_epoch": "2025-12-09T05:27:24.418944",
        "meta_mean_motion": 2.57975656,
        "meta_eccentricity": 0.7104172,
        "meta_inclination": 14.4001,
        "meta_ra_of_asc_node": 271.6446,
        "meta_arg_of_pericenter": 185.6905,
        "meta_mean_anomaly": 156.7335,
        "meta_ephemeris_type": 0,
        "meta_classification_type": "U",
        "meta_norad_cat_id": 66550,
        "meta_element_set_no": 999,
        "meta_rev_at_epoch": 25,
        "meta_bstar": 0.0029501,
        "meta_mean_motion_dot": 0.01805656,
        "meta_mean_motion_ddot": 5.5061e-07,
        "tle_line1": "1 66550U 25277B   25343.22736596  .01805656  55061-6  29501-2 0  9995",
        "tle_line2": "2 66550  14.4001 271.6446 7104172 185.6905 156.7335  2.57975656   259"
      },
      "geometry": {
        "type": "Point",
        "coordinates": [
          -153.7768862850791,
          -13.114908387332695
        ]
      }
    },
    {
      "type": "Feature",
      "properties": {
        "norad_id": 66551,
        "name": "UNKNOWN",
        "group": "last-30-days",
        "lat": -34.31407660541527,
        "lon": 168.5219166486063,
        "alt_km": 322.66885985298995,
        "timestamp": "2025-12-10T05:46:12.575494+00:00",
        "meta_object_name": "UNKNOWN",
        "meta_object_id": "2025-271AE",
        "meta_epoch": "2025-12-02T16:00:03.000096",
        "meta_mean_motion": 15.87051116,
        "meta_eccentricity": 7.17e-05,
        "meta_inclination": 53.1571,
        "meta_ra_of_asc_node": 236.7807,
        "meta_arg_of_pericenter": 110.7411,
        "meta_mean_anomaly": 313.9012,
        "meta_ephemeris_type": 0,
        "meta_classification_type": "U",
        "meta_norad_cat_id": 66551,
        "meta_element_set_no": 999,
        "meta_rev_at_epoch": 262,
        "meta_bstar": -0.0074303,
        "meta_mean_motion_dot": -0.01709685,
        "meta_mean_motion_ddot": 0,
        "tle_line1": "1 66551U 25271AE  25336.66670139 -.01709685  00000+0 -74303-2 0  9993",
        "tle_line2": "2 66551  53.1571 236.7807 0000717 110.7411 313.9012 15.87051116  2624"
      },
      "geometry": {
        "type": "Point",
        "coordinates": [
          168.5219166486063,
          -34.31407660541527
        ]
      }
    },
    {
      "type": "Feature",
      "properties": {
        "norad_id": 66554,
        "name": "GLOBAL-33",
        "group": "last-30-days",
        "lat": -34.38116529546228,
        "lon": 21.96359157307621,
        "alt_km": 474.1517632357318,
        "timestamp": "2025-12-10T05:46:12.575504+00:00",
        "meta_object_name": "GLOBAL-33",
        "meta_object_id": "2025-267A",
        "meta_epoch": "2025-12-09T14:22:09.826176",
        "meta_mean_motion": 15.31535046,
        "meta_eccentricity": 0.00046403,
        "meta_inclination": 42.0203,
        "meta_ra_of_asc_node": 75.1254,
        "meta_arg_of_pericenter": 30.4756,
        "meta_mean_anomaly": 329.6351,
        "meta_ephemeris_type": 0,
        "meta_classification_type": "U",
        "meta_norad_cat_id": 66554,
        "meta_element_set_no": 999,
        "meta_rev_at_epoch": 292,
        "meta_bstar": 0.00060900929,
        "meta_mean_motion_dot": 0.00018748,
        "meta_mean_motion_ddot": 0,
        "tle_line1": "1 66554U 25267A   25343.59872484  .00018748  00000+0  60901-3 0  9998",
        "tle_line2": "2 66554  42.0203  75.1254 0004640  30.4756 329.6351 15.31535046  2927"
      },
      "geometry": {
        "type": "Point",
        "coordinates": [
          21.96359157307621,
          -34.38116529546228
        ]
      }
    },
    {
      "type": "Feature",
      "properties": {
        "norad_id": 66555,
        "name": "ELECTRON KICK STAGE R/B",
        "group": "last-30-days",
        "lat": -1.5948996008402896,
        "lon": 69.51595349909613,
        "alt_km": 464.1092212495041,
        "timestamp": "2025-12-10T05:46:12.575514+00:00",
        "meta_object_name": "ELECTRON KICK STAGE R/B",
        "meta_object_id": "2025-267B",
        "meta_epoch": "2025-12-09T14:08:24.415872",
        "meta_mean_motion": 15.32568899,
        "meta_eccentricity": 0.00067718,
        "meta_inclination": 42.0198,
        "meta_ra_of_asc_node": 75.0548,
        "meta_arg_of_pericenter": 28.3952,
        "meta_mean_anomaly": 331.7253,
        "meta_ephemeris_type": 0,
        "meta_classification_type": "U",
        "meta_norad_cat_id": 66555,
        "meta_element_set_no": 999,
        "meta_rev_at_epoch": 292,
        "meta_bstar": 0.0010090003,
        "meta_mean_motion_dot": 0.00032333,
        "meta_mean_motion_ddot": 0,
        "tle_line1": "1 66555U 25267B   25343.58917148  .00032333  00000+0  10090-2 0  9994",
        "tle_line2": "2 66555  42.0198  75.0548 0006771  28.3952 331.7253 15.32568899  2925"
      },
      "geometry": {
        "type": "Point",
        "coordinates": [
          69.51595349909613,
          -1.5948996008402896
        ]
      }
    },
    {
      "type": "Feature",
      "properties": {
        "norad_id": 66557,
        "name": "STARLINK-35699",
        "group": "last-30-days",
        "lat": 6.386390509902632,
        "lon": -51.082518542212156,
        "alt_km": 414.1675543919264,
        "timestamp": "2025-12-10T05:46:12.575526+00:00",
        "meta_object_name": "STARLINK-35699",
        "meta_object_id": "2025-268A",
        "meta_epoch": "2025-12-09T20:00:01.999008",
        "meta_mean_motion": 15.50564788,
        "meta_eccentricity": 0.0001042,
        "meta_inclination": 43.0006,
        "meta_ra_of_asc_node": 138.1976,
        "meta_arg_of_pericenter": 286.6013,
        "meta_mean_anomaly": 128.9134,
        "meta_ephemeris_type": 0,
        "meta_classification_type": "U",
        "meta_norad_cat_id": 66557,
        "meta_element_set_no": 999,
        "meta_rev_at_epoch": 420,
        "meta_bstar": 0.0010738,
        "meta_mean_motion_dot": 0.0006313,
        "meta_mean_motion_ddot": 0,
        "tle_line1": "1 66557U 25268A   25343.83335647  .00063130  00000+0  10738-2 0  9991",
        "tle_line2": "2 66557  43.0006 138.1976 0001042 286.6013 128.9134 15.50564788  4205"
      },
      "geometry": {
        "type": "Point",
        "coordinates": [
          -51.082518542212156,
          6.386390509902632
        ]
      }
    },
    {
      "type": "Feature",
      "properties": {
        "norad_id": 66558,
        "name": "STARLINK-35695",
        "group": "last-30-days",
        "lat": 5.104132826255841,
        "lon": -49.688681711352544,
        "alt_km": 414.3887695548701,
        "timestamp": "2025-12-10T05:46:12.575537+00:00",
        "meta_object_name": "STARLINK-35695",
        "meta_object_id": "2025-268B",
        "meta_epoch": "2025-12-09T20:00:01.999008",
        "meta_mean_motion": 15.50554791,
        "meta_eccentricity": 0.0001149,
        "meta_inclination": 43.0006,
        "meta_ra_of_asc_node": 138.1932,
        "meta_arg_of_pericenter": 287.5054,
        "meta_mean_anomaly": 129.9135,
        "meta_ephemeris_type": 0,
        "meta_classification_type": "U",
        "meta_norad_cat_id": 66558,
        "meta_element_set_no": 999,
        "meta_rev_at_epoch": 420,
        "meta_bstar": 0.0011599,
        "meta_mean_motion_dot": 0.00068238,
        "meta_mean_motion_ddot": 0,
        "tle_line1": "1 66558U 25268B   25343.83335647  .00068238  00000+0  11599-2 0  9992",
        "tle_line2": "2 66558  43.0006 138.1932 0001149 287.5054 129.9135 15.50554791  4206"
      },
      "geometry": {
        "type": "Point",
        "coordinates": [
          -49.688681711352544,
          5.104132826255841
        ]
      }
    }
  ]
}